STARLINK-36128          
1 66873U 25281AB  25344.75002315 -.01256354  48300-3 -27664-2 0  9992
2 66873  43.0015 134.6311 0001713 272.8425  34.4024 15.97195544  2421
STARLINK-36129          
1 66874U 25281AC  25344.75002315 -.01246183  47510-3 -27677-2 0  9998
2 66874  43.0018 134.6426 0001722 273.4070  29.3953 15.97038594  2475
STARLINK-36053          
1 66875U 25281AD  25344.75002315 -.01252507  48070-3 -27453-2 0  9990
2 66875  43.0017 134.6244 0001692 274.4156  35.2421 15.97277493  2429
STARLINK-35702          
1 66876U 25281AE  25344.75002315 -.01244535  47441-3 -27497-2 0  9992
2 66876  43.0020 134.6356 0001742 276.3063  29.2605 15.97131878  2470
ZQ-3 R/B                
1 66877U 25282A   25345.64924139  .01188538  74244-5  24236-3 0  9990
2 66877  56.9524  61.8427 0793171 218.0596 136.1784 14.56097159  1237
1998-067XS              
1 66906U 98067XS  25345.82697218  .00034698  00000+0  60264-3 0  9999
2 66906  51.6297 146.9447 0003675 198.3211 161.7647 15.50491702  1478
1998-067XT              
1 66907U 98067XT  25343.50529068  .00076342  00000+0  12921-2 0  9998
2 66907  51.6307 158.4423 0004803 208.5081 151.5646 15.50864429  1113
1998-067XU              
1 66908U 98067XU  25345.82445213  .00079814  00000+0  13270-2 0  9990
2 66908  51.6299 146.9280 0004696 220.0254 140.0390 15.51346926  1474
SILVERSAT               
1 66909U 98067XV  25345.82414535  .00082864  00000+0  13718-2 0  9990
2 66909  51.6300 146.9260 0004556 222.0234 138.0406 15.51450033  1471
1998-067XW              
1 66910U 98067XW  25345.82273475  .00069176  00000+0  11427-2 0  9994
2 66910  51.6301 146.9170 0005376 203.4285 156.6460 15.51588385  1472
1998-067XX              
1 66911U 98067XX  25345.82215948  .00082980  00000+0  13560-2 0  9994
2 66911  51.6297 146.9125 0005115 205.0916 154.9826 15.51811503  1464
1998-067XY              
1 66912U 98067XY  25345.82552236  .00058790  00000+0  99420-3 0  9991
2 66912  51.6304 146.9360 0004705 217.5082 142.5579 15.51001955  1461
